[{"OBJECT_NAME":"STARLINK-5612","OBJECT_ID":"2023-028P","EPOCH":"2023-11-23T14:17:31.632864","MEAN_MOTION":14.98326746,"ECCENTRICITY":0.0002365,"INCLINATION":70.0005,"RA_OF_ASC_NODE":194.9839,"ARG_OF_PERICENTER":261.4582,"MEAN_ANOMALY":98.6309,"EPHEMERIS_TYPE":0,"CLASSIFICATION_TYPE":"U","NORAD_CAT_ID":55754,"ELEMENT_SET_NO":999,"REV_AT_EPOCH":4065,"BSTAR":3.8215e-5,"MEAN_MOTION_DOT":3.63e-6,"MEAN_MOTION_DDOT":0},{"OBJECT_NAME":"STARLINK-5619","OBJECT_ID":"2023-028Q","EPOCH":"2023-11-23T13:59:44.264544","MEAN_MOTION":14.9832441,"ECCENTRICITY":0.0002444,"INCLINATION":70.0001,"RA_OF_ASC_NODE":194.9338,"ARG_OF_PERICENTER":261.9794,"MEAN_ANOMALY":98.1088,"EPHEMERIS_TYPE":0,"CLASSIFICATION_TYPE":"U","NORAD_CAT_ID":55755,"ELEMENT_SET_NO":999,"REV_AT_EPOCH":4065,"BSTAR":4.9507e-5,"MEAN_MOTION_DOT":4.98e-6,"MEAN_MOTION_DDOT":0},{"OBJECT_NAME":"STARLINK-5614","OBJECT_ID":"2023-028R","EPOCH":"2023-11-23T01:04:24.200256","MEAN_MOTION":14.98334731,"ECCENTRICITY":0.0002668,"INCLINATION":69.9993,"RA_OF_ASC_NODE":196.2709,"ARG_OF_PERICENTER":266.5241,"MEAN_ANOMALY":93.5613,"EPHEMERIS_TYPE":0,"CLASSIFICATION_TYPE":"U","NORAD_CAT_ID":55756,"ELEMENT_SET_NO":999,"REV_AT_EPOCH":4057,"BSTAR":2.7697e-5,"MEAN_MOTION_DOT":2.38e-6,"MEAN_MOTION_DDOT":0},{"OBJECT_NAME":"STARLINK-5544","OBJECT_ID":"2023-028S","EPOCH":"2023-11-23T01:34:26.933664","MEAN_MOTION":14.98340545,"ECCENTRICITY":0.0002287,"INCLINATION":69.9991,"RA_OF_ASC_NODE":196.3446,"ARG_OF_PERICENTER":260.7455,"MEAN_ANOMALY":99.3445,"EPHEMERIS_TYPE":0,"CLASSIFICATION_TYPE":"U","NORAD_CAT_ID":55757,"ELEMENT_SET_NO":999,"REV_AT_EPOCH":4057,"BSTAR":6.8557e-5,"MEAN_MOTION_DOT":7.25e-6,"MEAN_MOTION_DDOT":0},{"OBJECT_NAME":"STARLINK-5072","OBJECT_ID":"2023-028T","EPOCH":"2023-11-23T01:22:26.272992","MEAN_MOTION":14.98336156,"ECCENTRICITY":0.0002492,"INCLINATION":69.9993,"RA_OF_ASC_NODE":196.3137,"ARG_OF_PERICENTER":269.9653,"MEAN_ANOMALY":90.122,"EPHEMERIS_TYPE":0,"CLASSIFICATION_TYPE":"U","NORAD_CAT_ID":55758,"ELEMENT_SET_NO":999,"REV_AT_EPOCH":4057,"BSTAR":2.7943e-5,"MEAN_MOTION_DOT":2.41e-6,"MEAN_MOTION_DDOT":0},{"OBJECT_NAME":"STARLINK-5081","OBJECT_ID":"2023-028U","EPOCH":"2023-11-23T14:41:29.538816","MEAN_MOTION":14.98325936,"ECCENTRICITY":0.0001955,"INCLINATION":70.0003,"RA_OF_ASC_NODE":175.2052,"ARG_OF_PERICENTER":257.1444,"MEAN_ANOMALY":102.9497,"EPHEMERIS_TYPE":0,"CLASSIFICATION_TYPE":"U","NORAD_CAT_ID":55759,"ELEMENT_SET_NO":999,"REV_AT_EPOCH":4114,"BSTAR":-1.2649e-5,"MEAN_MOTION_DOT":-2.44e-6,"MEAN_MOTION_DDOT":0},{"OBJECT_NAME":"STARLINK-5532","OBJECT_ID":"2023-028V","EPOCH":"2023-11-23T01:04:38.821728","MEAN_MOTION":14.9833214,"ECCENTRICITY":0.0002482,"INCLINATION":69.9997,"RA_OF_ASC_NODE":196.272,"ARG_OF_PERICENTER":269.4215,"MEAN_ANOMALY":90.6659,"EPHEMERIS_TYPE":0,"CLASSIFICATION_TYPE":"U","NORAD_CAT_ID":55760,"ELEMENT_SET_NO":999,"REV_AT_EPOCH":4057,"BSTAR":-3.6876e-5,"MEAN_MOTION_DOT":-5.33e-6,"MEAN_MOTION_DDOT":0},{"OBJECT_NAME":"STARLINK-5611","OBJECT_ID":"2023-028W","EPOCH":"2023-11-23T00:28:17.106816","MEAN_MOTION":14.98338651,"ECCENTRICITY":0.0002741,"INCLINATION":69.9987,"RA_OF_ASC_NODE":176.7065,"ARG_OF_PERICENTER":270.284,"MEAN_ANOMALY":89.8005,"EPHEMERIS_TYPE":0,"CLASSIFICATION_TYPE":"U","NORAD_CAT_ID":55761,"ELEMENT_SET_NO":999,"REV_AT_EPOCH":4105,"BSTAR":9.0306e-5,"MEAN_MOTION_DOT":9.85e-6,"MEAN_MOTION_DDOT":0},{"OBJECT_NAME":"STARLINK-5603","OBJECT_ID":"2023-028X","EPOCH":"2023-11-23T14:35:14.434080","MEAN_MOTION":14.98332143,"ECCENTRICITY":0.0002301,"INCLINATION":69.9993,"RA_OF_ASC_NODE":175.1457,"ARG_OF_PERICENTER":276.7599,"MEAN_ANOMALY":83.3298,"EPHEMERIS_TYPE":0,"CLASSIFICATION_TYPE":"U","NORAD_CAT_ID":55762,"ELEMENT_SET_NO":999,"REV_AT_EPOCH":4114,"BSTAR":-8.4359e-5,"MEAN_MOTION_DOT":-1.099e-5,"MEAN_MOTION_DDOT":0},{"OBJECT_NAME":"STARLINK-5593","OBJECT_ID":"2023-028Y","EPOCH":"2023-11-23T01:10:25.089600","MEAN_MOTION":14.98329398,"ECCENTRICITY":0.0002781,"INCLINATION":69.9987,"RA_OF_ASC_NODE":196.2847,"ARG_OF_PERICENTER":266.627,"MEAN_ANOMALY":93.4571,"EPHEMERIS_TYPE":0,"CLASSIFICATION_TYPE":"U","NORAD_CAT_ID":55763,"ELEMENT_SET_NO":999,"REV_AT_EPOCH":4057,"BSTAR":0.00049792,"MEAN_MOTION_DOT":5.853e-5,"MEAN_MOTION_DDOT":0},{"OBJECT_NAME":"STARLINK-5499","OBJECT_ID":"2023-028Z","EPOCH":"2023-11-23T14:41:15.193824","MEAN_MOTION":14.98334955,"ECCENTRICITY":0.0002265,"INCLINATION":69.9992,"RA_OF_ASC_NODE":175.1619,"ARG_OF_PERICENTER":276.7472,"MEAN_ANOMALY":83.343,"EPHEMERIS_TYPE":0,"CLASSIFICATION_TYPE":"U","NORAD_CAT_ID":55764,"ELEMENT_SET_NO":999,"REV_AT_EPOCH":4114,"BSTAR":-9.0878e-5,"MEAN_MOTION_DOT":-1.177e-5,"MEAN_MOTION_DDOT":0},{"OBJECT_NAME":"STARLINK-5595","OBJECT_ID":"2023-028AA","EPOCH":"2023-11-23T14:47:15.742752","MEAN_MOTION":14.9832997,"ECCENTRICITY":0.0002595,"INCLINATION":69.9992,"RA_OF_ASC_NODE":175.1758,"ARG_OF_PERICENTER":269.7257,"MEAN_ANOMALY":90.3605,"EPHEMERIS_TYPE":0,"CLASSIFICATION_TYPE":"U","NORAD_CAT_ID":55765,"ELEMENT_SET_NO":999,"REV_AT_EPOCH":4114,"BSTAR":-2.0051e-5,"MEAN_MOTION_DOT":-3.32e-6,"MEAN_MOTION_DDOT":0},{"OBJECT_NAME":"STARLINK-5599","OBJECT_ID":"2023-028AB","EPOCH":"2023-11-23T14:11:12.214176","MEAN_MOTION":14.98312976,"ECCENTRICITY":0.0002168,"INCLINATION":69.9998,"RA_OF_ASC_NODE":175.0887,"ARG_OF_PERICENTER":257.3693,"MEAN_ANOMALY":102.7224,"EPHEMERIS_TYPE":0,"CLASSIFICATION_TYPE":"U","NORAD_CAT_ID":55766,"ELEMENT_SET_NO":999,"REV_AT_EPOCH":4114,"BSTAR":0.00011189,"MEAN_MOTION_DOT":1.242e-5,"MEAN_MOTION_DDOT":0},{"OBJECT_NAME":"STARLINK-5606","OBJECT_ID":"2023-028AC","EPOCH":"2023-11-23T00:28:03.305280","MEAN_MOTION":14.98325298,"ECCENTRICITY":0.0002696,"INCLINATION":69.9988,"RA_OF_ASC_NODE":176.7055,"ARG_OF_PERICENTER":273.3127,"MEAN_ANOMALY":86.7723,"EPHEMERIS_TYPE":0,"CLASSIFICATION_TYPE":"U","NORAD_CAT_ID":55767,"ELEMENT_SET_NO":999,"REV_AT_EPOCH":4105,"BSTAR":8.9979e-5,"MEAN_MOTION_DOT":9.81e-6,"MEAN_MOTION_DDOT":0},{"OBJECT_NAME":"STARLINK-5583","OBJECT_ID":"2023-028AD","EPOCH":"2023-11-23T14:29:13.802208","MEAN_MOTION":14.98329995,"ECCENTRICITY":0.0002146,"INCLINATION":70.0001,"RA_OF_ASC_NODE":175.1325,"ARG_OF_PERICENTER":262.909,"MEAN_ANOMALY":97.1825,"EPHEMERIS_TYPE":0,"CLASSIFICATION_TYPE":"U","NORAD_CAT_ID":55768,"ELEMENT_SET_NO":999,"REV_AT_EPOCH":4114,"BSTAR":-8.0778e-5,"MEAN_MOTION_DOT":-1.057e-5,"MEAN_MOTION_DDOT":0},{"OBJECT_NAME":"STARLINK-5584","OBJECT_ID":"2023-028AE","EPOCH":"2023-11-23T14:23:13.108992","MEAN_MOTION":14.98324715,"ECCENTRICITY":0.0002094,"INCLINATION":70.0011,"RA_OF_ASC_NODE":175.117,"ARG_OF_PERICENTER":265.0602,"MEAN_ANOMALY":95.0318,"EPHEMERIS_TYPE":0,"CLASSIFICATION_TYPE":"U","NORAD_CAT_ID":55769,"ELEMENT_SET_NO":999,"REV_AT_EPOCH":4114,"BSTAR":1.1699e-5,"MEAN_MOTION_DOT":4.7e-7,"MEAN_MOTION_DDOT":0},{"OBJECT_NAME":"STARLINK-5557","OBJECT_ID":"2023-028AF","EPOCH":"2023-11-23T14:17:12.505632","MEAN_MOTION":14.98325126,"ECCENTRICITY":0.0001929,"INCLINATION":70.0009,"RA_OF_ASC_NODE":175.1053,"ARG_OF_PERICENTER":248.6626,"MEAN_ANOMALY":111.4327,"EPHEMERIS_TYPE":0,"CLASSIFICATION_TYPE":"U","NORAD_CAT_ID":55770,"ELEMENT_SET_NO":999,"REV_AT_EPOCH":4114,"BSTAR":-1.3516e-5,"MEAN_MOTION_DOT":-2.54e-6,"MEAN_MOTION_DDOT":0},{"OBJECT_NAME":"STARLINK-5591","OBJECT_ID":"2023-028AG","EPOCH":"2023-11-23T14:05:11.183136","MEAN_MOTION":14.98324499,"ECCENTRICITY":0.0002521,"INCLINATION":69.9992,"RA_OF_ASC_NODE":175.0734,"ARG_OF_PERICENTER":261.3268,"MEAN_ANOMALY":98.7605,"EPHEMERIS_TYPE":0,"CLASSIFICATION_TYPE":"U","NORAD_CAT_ID":55771,"ELEMENT_SET_NO":999,"REV_AT_EPOCH":4114,"BSTAR":9.7191e-6,"MEAN_MOTION_DOT":2.3e-7,"MEAN_MOTION_DDOT":0},{"OBJECT_NAME":"STARLINK-5835","OBJECT_ID":"2023-028AH","EPOCH":"2023-11-22T23:21:56.011680","MEAN_MOTION":14.98336213,"ECCENTRICITY":0.0002538,"INCLINATION":69.999,"RA_OF_ASC_NODE":176.5441,"ARG_OF_PERICENTER":270.044,"MEAN_ANOMALY":90.0428,"EPHEMERIS_TYPE":0,"CLASSIFICATION_TYPE":"U","NORAD_CAT_ID":55772,"ELEMENT_SET_NO":999,"REV_AT_EPOCH":4105,"BSTAR":2.4666e-5,"MEAN_MOTION_DOT":2.01e-6,"MEAN_MOTION_DDOT":0},{"OBJECT_NAME":"STARLINK-5833","OBJECT_ID":"2023-028AJ","EPOCH":"2023-11-23T14:05:26.029248","MEAN_MOTION":14.98333298,"ECCENTRICITY":0.0001974,"INCLINATION":69.999,"RA_OF_ASC_NODE":175.0744,"ARG_OF_PERICENTER":265.5322,"MEAN_ANOMALY":94.5611,"EPHEMERIS_TYPE":0,"CLASSIFICATION_TYPE":"U","NORAD_CAT_ID":55773,"ELEMENT_SET_NO":999,"REV_AT_EPOCH":4114,"BSTAR":0.00015147,"MEAN_MOTION_DOT":1.715e-5,"MEAN_MOTION_DDOT":0},{"OBJECT_NAME":"STARLINK-5812","OBJECT_ID":"2023-028AK","EPOCH":"2023-11-22T23:33:57.843072","MEAN_MOTION":14.98329144,"ECCENTRICITY":0.0002397,"INCLINATION":69.9994,"RA_OF_ASC_NODE":176.5733,"ARG_OF_PERICENTER":264.6226,"MEAN_ANOMALY":95.466,"EPHEMERIS_TYPE":0,"CLASSIFICATION_TYPE":"U","NORAD_CAT_ID":55774,"ELEMENT_SET_NO":999,"REV_AT_EPOCH":4105,"BSTAR":-6.8485e-6,"MEAN_MOTION_DOT":-1.75e-6,"MEAN_MOTION_DDOT":0},{"OBJECT_NAME":"STARLINK-5809","OBJECT_ID":"2023-028AL","EPOCH":"2023-11-22T23:27:56.742912","MEAN_MOTION":14.98334338,"ECCENTRICITY":0.00023,"INCLINATION":69.9991,"RA_OF_ASC_NODE":176.5592,"ARG_OF_PERICENTER":259.9871,"MEAN_ANOMALY":100.1029,"EPHEMERIS_TYPE":0,"CLASSIFICATION_TYPE":"U","NORAD_CAT_ID":55775,"ELEMENT_SET_NO":999,"REV_AT_EPOCH":4105,"BSTAR":9.9487e-6,"MEAN_MOTION_DOT":2.6e-7,"MEAN_MOTION_DDOT":0},{"OBJECT_NAME":"STARLINK-5810","OBJECT_ID":"2023-028AM","EPOCH":"2023-11-23T00:34:01.397856","MEAN_MOTION":14.9833618,"ECCENTRICITY":0.0002674,"INCLINATION":69.9986,"RA_OF_ASC_NODE":176.3149,"ARG_OF_PERICENTER":268.1616,"MEAN_ANOMALY":91.9237,"EPHEMERIS_TYPE":0,"CLASSIFICATION_TYPE":"U","NORAD_CAT_ID":55776,"ELEMENT_SET_NO":999,"REV_AT_EPOCH":4106,"BSTAR":3.1288e-5,"MEAN_MOTION_DOT":2.8e-6,"MEAN_MOTION_DDOT":0}]
